SL-16 R/B               
1 25400U 98043G   25361.74343355  .00000097  00000+0  59487-4 0  9998
2 25400  98.8147 309.6471 0009105 218.4695 141.5836 14.26029068428730
SL-16 R/B               
1 25407U 98045B   25362.09225306  .00000227  00000+0  13892-3 0  9995
2 25407  71.0124 332.1398 0006005 151.0848 209.0609 14.16179978416967
ISS (ZARYA)             
1 25544U 98067A   25361.88879672  .00015012  00000+0  27157-3 0  9995
2 25544  51.6320  67.4500 0003237 312.1119  47.9595 15.49886938545200
CZ-4B R/B               
1 25732U 99025C   25361.98845681  .00000071  00000+0  54969-4 0  9994
2 25732  98.6749  42.9259 0036991 189.5810 234.6229 14.18247402378004
OKEAN-O                 
1 25860U 99039A   25362.13493191  .00000910  00000+0  12668-3 0  9995
2 25860  97.9582  57.7020 0001203 115.0963 245.0374 14.80188150423803
SL-16 R/B               
1 25861U 99039B   25361.91264573  .00000794  00000+0  10772-3 0  9995
2 25861  98.0107  56.0635 0015925 127.4293 232.8371 14.81608978426239
DELTA 2 R/B             
1 25876U 99041E   25362.00817093  .00001780  00000+0  32527-3 0  9994
2 25876  51.7597 227.4948 0504404 136.7622 227.4075 14.11445027352909
HELIOS 1B               
1 25977U 99064A   25362.14247367  .00002685  00000+0  30372-3 0  9998
2 25977  98.1749 257.2654 0000776  31.0649 329.0612 14.87346675674623
TERRA                   
1 25994U 99068A   25362.14397925  .00000598  00000+0  13127-3 0  9997
2 25994  97.9728  53.2614 0003333  63.4234 353.9669 14.60919600384639
SL-16 R/B               
1 26070U 00006B   25362.08905469  .00000278  00000+0  16564-3 0  9991
2 26070  71.0010 248.3848 0018625 287.9309  71.9783 14.15810438338423
TITAN 4B R/B            
1 26474U 00047B   25362.12230676  .00004365  00000+0  28005-3 0  9994
2 26474  67.9888 241.6505 0037886 125.6055 234.8634 15.08894207382119
ENVISAT                 
1 27386U 02009A   25352.94754304  .00000081  00000+0  39999-4 0  9991
2 27386  98.3609 303.5309 0001126  84.8976 298.2993 14.39001403247569
